{"type": "FeatureCollection", "features": [ {"type": "Feature", "properties": {"norad_id": 65304, "name": "DRAGON CRS-33", "group": "stations", "lat": 6.157179441981318, "lon": 103.00813731108015, "alt_km": 417.3427051994431, "timestamp": "2025-12-21T16:47:53.483002+00:00", "meta": {"OBJECT_NAME": "DRAGON CRS-33", "OBJECT_ID": "2025-186A", "EPOCH": "2025-12-21T04:22:59.119680", "MEAN_MOTION": 15.49696285, "ECCENTRICITY": 0.00031756, "INCLINATION": 51.6324, "RA_OF_ASC_NODE": 100.6685, "ARG_OF_PERICENTER": 279.9061, "MEAN_ANOMALY": 80.1569, "EPHEMERIS_TYPE": 0, "CLASSIFICATION_TYPE": "U", "NORAD_CAT_ID": 65304, "ELEMENT_SET_NO": 999, "REV_AT_EPOCH": 11, "BSTAR": 0.00015703459, "MEAN_MOTION_DOT": 8.423e-05, "MEAN_MOTION_DDOT": 0}, "tle": {"line1": "1 65304U 25186A   25355.18262870  .00008423  00000+0  15703-3 0  9999", "line2": "2 65304  51.6324 100.6685 0003175 279.9061  80.1569 15.49696285   113"}}, "geometry": {"type": "Point", "coordinates": [103.00813731108015, 6.157179441981318]}}, {"type": "Feature", "properties": {"norad_id": 65586, "name": "PROGRESS-MS 32", "group": "stations", "lat": 6.157179997283928, "lon": 103.0081377571344, "alt_km": 417.34270514737636, "timestamp": "2025-12-21T16:47:53.483013+00:00", "meta": {"OBJECT_NAME": "PROGRESS-MS 32", "OBJECT_ID": "2025-204A", "EPOCH": "2025-12-21T04:22:59.119680", "MEAN_MOTION": 15.49696285, "ECCENTRICITY": 0.00031756, "INCLINATION": 51.6324, "RA_OF_ASC_NODE": 100.6685, "ARG_OF_PERICENTER": 279.9061, "MEAN_ANOMALY": 80.1569, "EPHEMERIS_TYPE": 0, "CLASSIFICATION_TYPE": "U", "NORAD_CAT_ID": 65586, "ELEMENT_SET_NO": 999, "REV_AT_EPOCH": 27, "BSTAR": 0.00015703459, "MEAN_MOTION_DOT": 8.423e-05, "MEAN_MOTION_DDOT": 0}, "tle": {"line1": "1 65586U 25204A   25355.18262870  .00008423  00000+0  15703-3 0  9992", "line2": "2 65586  51.6324 100.6685 0003175 279.9061  80.1569 15.49696285   272"}}, "geometry": {"type": "Point", "coordinates": [103.0081377571344, 6.157179997283928]}}, {"type": "Feature", "properties": {"norad_id": 65616, "name": "CYGNUS NG-23", "group": "stations", "lat": 6.15718045162238, "lon": 103.00813812208786, "alt_km": 417.3427051047738, "timestamp": "2025-12-21T16:47:53.483022+00:00", "meta": {"OBJECT_NAME": "CYGNUS NG-23", "OBJECT_ID": "2025-208A", "EPOCH": "2025-12-21T04:22:59.119680", "MEAN_MOTION": 15.49696285, "ECCENTRICITY": 0.00031756, "INCLINATION": 51.6324, "RA_OF_ASC_NODE": 100.6685, "ARG_OF_PERICENTER": 279.9061, "MEAN_ANOMALY": 80.1569, "EPHEMERIS_TYPE": 0, "CLASSIFICATION_TYPE": "U", "NORAD_CAT_ID": 65616, "ELEMENT_SET_NO": 999, "REV_AT_EPOCH": 22, "BSTAR": 0.00015703459, "MEAN_MOTION_DOT": 8.423e-05, "MEAN_MOTION_DDOT": 0}, "tle": {"line1": "1 65616U 25208A   25355.18262870  .00008423  00000+0  15703-3 0  9990", "line2": "2 65616  51.6324 100.6685 0003175 279.9061  80.1569 15.49696285   221"}}, "geometry": {"type": "Point", "coordinates": [103.00813812208786, 6.15718045162238]}}, {"type": "Feature", "properties": {"norad_id": 65729, "name": "DRAGONFLY", "group": "stations", "lat": 26.379053334309873, "lon": 112.92251515924124, "alt_km": 339.55005738283035, "timestamp": "2025-12-21T16:47:53.483032+00:00", "meta": {"OBJECT_NAME": "DRAGONFLY", "OBJECT_ID": "1998-067XH", "EPOCH": "2025-12-21T12:05:00.182112", "MEAN_MOTION": 15.74757439, "ECCENTRICITY": 0.0007643, "INCLINATION": 51.6248, "RA_OF_ASC_NODE": 90.7906, "ARG_OF_PERICENTER": 331.3887, "MEAN_ANOMALY": 28.6692, "EPHEMERIS_TYPE": 0, "CLASSIFICATION_TYPE": "U", "NORAD_CAT_ID": 65729, "ELEMENT_SET_NO": 999, "REV_AT_EPOCH": 1454, "BSTAR": 0.0011144, "MEAN_MOTION_DOT": 0.00170588, "MEAN_MOTION_DDOT": 0}, "tle": {"line1": "1 65729U 98067XH  25355.50347433  .00170588  00000+0  11144-2 0  9999", "line2": "2 65729  51.6248  90.7906 0007643 331.3887  28.6692 15.74757439 14540"}}, "geometry": {"type": "Point", "coordinates": [112.92251515924124, 26.379053334309873]}}, {"type": "Feature", "properties": {"norad_id": 65731, "name": "1998-067XK", "group": "stations", "lat": -14.082647725628583, "lon": -76.82271309171821, "alt_km": 369.4974611281232, "timestamp": "2025-12-21T16:47:53.483043+00:00", "meta": {"OBJECT_NAME": "1998-067XK", "OBJECT_ID": "1998-067XK", "EPOCH": "2025-12-20T00:10:02.026560", "MEAN_MOTION": 15.67078773, "ECCENTRICITY": 0.00047639, "INCLINATION": 51.6294, "RA_OF_ASC_NODE": 100.3244, "ARG_OF_PERICENTER": 292.7833, "MEAN_ANOMALY": 67.2659, "EPHEMERIS_TYPE": 0, "CLASSIFICATION_TYPE": "U", "NORAD_CAT_ID": 65731, "ELEMENT_SET_NO": 999, "REV_AT_EPOCH": 1428, "BSTAR": 0.00070175188, "MEAN_MOTION_DOT": 0.00076617, "MEAN_MOTION_DDOT": 0}, "tle": {"line1": "1 65731U 98067XK  25354.00696790  .00076617  00000+0  70175-3 0  9997", "line2": "2 65731  51.6294 100.3244 0004763 292.7833  67.2659 15.67078773 14280"}}, "geometry": {"type": "Point", "coordinates": [-76.82271309171821, -14.082647725628583]}}, {"type": "Feature", "properties": {"norad_id": 65732, "name": "RSP-03", "group": "stations", "lat": -51.532907286439375, "lon": 4.949709379503554, "alt_km": 358.07819718966493, "timestamp": "2025-12-21T16:47:53.483055+00:00", "meta": {"OBJECT_NAME": "RSP-03", "OBJECT_ID": "1998-067XL", "EPOCH": "2025-12-21T12:35:17.943936", "MEAN_MOTION": 15.70746693, "ECCENTRICITY": 0.0005725, "INCLINATION": 51.6266, "RA_OF_ASC_NODE": 91.6927, "ARG_OF_PERICENTER": 306.8902, "MEAN_ANOMALY": 53.1571, "EPHEMERIS_TYPE": 0, "CLASSIFICATION_TYPE": "U", "NORAD_CAT_ID": 65732, "ELEMENT_SET_NO": 999, "REV_AT_EPOCH": 1454, "BSTAR": 0.000951, "MEAN_MOTION_DOT": 0.00121759, "MEAN_MOTION_DDOT": 0}, "tle": {"line1": "1 65732U 98067XL  25355.52451324  .00121759  00000+0  95100-3 0  9991", "line2": "2 65732  51.6266  91.6927 0005725 306.8902  53.1571 15.70746693 14546"}}, "geometry": {"type": "Point", "coordinates": [4.949709379503554, -51.532907286439375]}}, {"type": "Feature", "properties": {"norad_id": 65733, "name": "GHS-01", "group": "stations", "lat": 41.14586458218192, "lon": 132.80621279259807, "alt_km": 327.93941849846397, "timestamp": "2025-12-21T16:47:53.483066+00:00", "meta": {"OBJECT_NAME": "GHS-01", "OBJECT_ID": "1998-067XM", "EPOCH": "2025-12-21T07:26:29.308416", "MEAN_MOTION": 15.78445011, "ECCENTRICITY": 0.0008633, "INCLINATION": 51.6276, "RA_OF_ASC_NODE": 91.0058, "ARG_OF_PERICENTER": 334.04, "MEAN_ANOMALY": 26.0167, "EPHEMERIS_TYPE": 0, "CLASSIFICATION_TYPE": "U", "NORAD_CAT_ID": 65733, "ELEMENT_SET_NO": 999, "REV_AT_EPOCH": 1453, "BSTAR": 0.0012619, "MEAN_MOTION_DOT": 0.00229224, "MEAN_MOTION_DDOT": 0}, "tle": {"line1": "1 65733U 98067XM  25355.31006144  .00229224  00000+0  12619-2 0  9994", "line2": "2 65733  51.6276  91.0058 0008633 334.0400  26.0167 15.78445011 14531"}}, "geometry": {"type": "Point", "coordinates": [132.80621279259807, 41.14586458218192]}}, {"type": "Feature", "properties": {"norad_id": 65941, "name": "YOTSUBA-KULOVER", "group": "stations", "lat": 48.2253192410742, "lon": -147.59377736552412, "alt_km": 380.2568295910005, "timestamp": "2025-12-21T16:47:53.483076+00:00", "meta": {"OBJECT_NAME": "YOTSUBA-KULOVER", "OBJECT_ID": "1998-067XN", "EPOCH": "2025-12-20T17:17:02.919552", "MEAN_MOTION": 15.60468016, "ECCENTRICITY": 0.00018346, "INCLINATION": 51.6291, "RA_OF_ASC_NODE": 99.8352, "ARG_OF_PERICENTER": 329.1843, "MEAN_ANOMALY": 30.9043, "EPHEMERIS_TYPE": 0, "CLASSIFICATION_TYPE": "U", "NORAD_CAT_ID": 65941, "ELEMENT_SET_NO": 999, "REV_AT_EPOCH": 1110, "BSTAR": 0.00060496039, "MEAN_MOTION_DOT": 0.00050568, "MEAN_MOTION_DDOT": 0}, "tle": {"line1": "1 65941U 98067XN  25354.72017268  .00050568  00000+0  60496-3 0  9998", "line2": "2 65941  51.6291  99.8352 0001834 329.1843  30.9043 15.60468016 11102"}}, "geometry": {"type": "Point", "coordinates": [-147.59377736552412, 48.2253192410742]}}, {"type": "Feature", "properties": {"norad_id": 65942, "name": "BOTAN", "group": "stations", "lat": -13.911790595156145, "lon": -74.71954189516842, "alt_km": 377.35624980229204, "timestamp": "2025-12-21T16:47:53.483087+00:00", "meta": {"OBJECT_NAME": "BOTAN", "OBJECT_ID": "1998-067XP", "EPOCH": "2025-12-20T13:53:44.237472", "MEAN_MOTION": 15.64441775, "ECCENTRICITY": 0.00029505, "INCLINATION": 51.6283, "RA_OF_ASC_NODE": 99.6415, "ARG_OF_PERICENTER": 304.2475, "MEAN_ANOMALY": 55.824, "EPHEMERIS_TYPE": 0, "CLASSIFICATION_TYPE": "U", "NORAD_CAT_ID": 65942, "ELEMENT_SET_NO": 999, "REV_AT_EPOCH": 1109, "BSTAR": 0.00083574073, "MEAN_MOTION_DOT": 0.00082185, "MEAN_MOTION_DDOT": 0}, "tle": {"line1": "1 65942U 98067XP  25354.57898423  .00082185  00000+0  83574-3 0  9994", "line2": "2 65942  51.6283  99.6415 0002950 304.2475  55.8240 15.64441775 11097"}}, "geometry": {"type": "Point", "coordinates": [-74.71954189516842, -13.911790595156145]}}, {"type": "Feature", "properties": {"norad_id": 65943, "name": "E-KAGAKU-1", "group": "stations", "lat": 48.2667584025567, "lon": -147.75025958199748, "alt_km": 379.8868941617575, "timestamp": "2025-12-21T16:47:53.483097+00:00", "meta": {"OBJECT_NAME": "E-KAGAKU-1", "OBJECT_ID": "1998-067XQ", "EPOCH": "2025-12-18T08:24:49.666176", "MEAN_MOTION": 15.60193795, "ECCENTRICITY": 0.00013451, "INCLINATION": 51.6302, "RA_OF_ASC_NODE": 111.7666, "ARG_OF_PERICENTER": 249.8249, "MEAN_ANOMALY": 110.26, "EPHEMERIS_TYPE": 0, "CLASSIFICATION_TYPE": "U", "NORAD_CAT_ID": 65943, "ELEMENT_SET_NO": 999, "REV_AT_EPOCH": 1073, "BSTAR": 0.00084619625, "MEAN_MOTION_DOT": 0.00070368, "MEAN_MOTION_DDOT": 0}, "tle": {"line1": "1 65943U 98067XQ  25352.35057484  .00070368  00000+0  84620-3 0  9996", "line2": "2 65943  51.6302 111.7666 0001345 249.8249 110.2600 15.60193795 10732"}}, "geometry": {"type": "Point", "coordinates": [-147.75025958199748, 48.2667584025567]}}]}